[
  {
    "OBJECT_NAME": "STARLINK-1152",
    "OBJECT_ID": "20006BE",
    "EPOCH": "2025-11-11T06:38:45.970080",
    "MEAN_MOTION": 15.25169097,
    "ECCENTRICITY": 0.0004216,
    "INCLINATION": 53.0476,
    "RA_OF_ASC_NODE": 39.0252,
    "ARG_OF_PERICENTER": 233.2885,
    "MEAN_ANOMALY": 126.7725,
    "EPHEMERIS_TYPE": 0,
    "CLASSIFICATION_TYPE": "U",
    "NORAD_CAT_ID": 45096,
    "ELEMENT_SET_NO": 999,
    "REV_AT_EPOCH": 31944,
    "BSTAR": 0.0014027,
    "MEAN_MOTION_DOT": 0.00035481,
    "MEAN_MOTION_DDOT": 0.0,
    "TLE_LINE1": "1 45096U 20006BE  25315.27692095  .00035481  00000+0  14027-2 0  9994",
    "TLE_LINE2": "2 45096  53.0476  39.0252 0004216 233.2885 126.7725 15.25169097319442",
    "COMMENT": "Grouped by shell and plane from TLE"
  },
  {
    "OBJECT_NAME": "STARLINK-1784",
    "OBJECT_ID": "20073T",
    "EPOCH": "2025-11-11T04:37:41.143584",
    "MEAN_MOTION": 15.30549397,
    "ECCENTRICITY": 0.000211,
    "INCLINATION": 53.0577,
    "RA_OF_ASC_NODE": 31.0794,
    "ARG_OF_PERICENTER": 78.622,
    "MEAN_ANOMALY": 281.5016,
    "EPHEMERIS_TYPE": 0,
    "CLASSIFICATION_TYPE": "U",
    "NORAD_CAT_ID": 46687,
    "ELEMENT_SET_NO": 999,
    "REV_AT_EPOCH": 27958,
    "BSTAR": 0.00066786,
    "MEAN_MOTION_DOT": 0.00019689,
    "MEAN_MOTION_DDOT": 0.0,
    "TLE_LINE1": "1 46687U 20073T   25315.19283731  .00019689  00000+0  66786-3 0  9991",
    "TLE_LINE2": "2 46687  53.0577  31.0794 0002110  78.6220 281.5016 15.30549397279583",
    "COMMENT": "Grouped by shell and plane from TLE"
  },
  {
    "OBJECT_NAME": "STARLINK-1789",
    "OBJECT_ID": "20073W",
    "EPOCH": "2025-11-11T06:12:45.816768",
    "MEAN_MOTION": 15.47052005,
    "ECCENTRICITY": 0.001095,
    "INCLINATION": 53.0508,
    "RA_OF_ASC_NODE": 30.644,
    "ARG_OF_PERICENTER": 315.2342,
    "MEAN_ANOMALY": 44.778,
    "EPHEMERIS_TYPE": 0,
    "CLASSIFICATION_TYPE": "U",
    "NORAD_CAT_ID": 46690,
    "ELEMENT_SET_NO": 999,
    "REV_AT_EPOCH": 27959,
    "BSTAR": 0.0029273,
    "MEAN_MOTION_DOT": 0.00153338,
    "MEAN_MOTION_DDOT": 0.0,
    "TLE_LINE1": "1 46690U 20073W   25315.25886362  .00153338  00000+0  29273-2 0  9990",
    "TLE_LINE2": "2 46690  53.0508  30.6440 0010950 315.2342  44.7780 15.47052005279591",
    "COMMENT": "Grouped by shell and plane from TLE"
  },
  {
    "OBJECT_NAME": "STARLINK-1795",
    "OBJECT_ID": "20073AC",
    "EPOCH": "2025-11-11T05:17:40.269408",
    "MEAN_MOTION": 15.37458792,
    "ECCENTRICITY": 0.0003063,
    "INCLINATION": 53.0553,
    "RA_OF_ASC_NODE": 30.5046,
    "ARG_OF_PERICENTER": 18.7327,
    "MEAN_ANOMALY": 341.3788,
    "EPHEMERIS_TYPE": 0,
    "CLASSIFICATION_TYPE": "U",
    "NORAD_CAT_ID": 46696,
    "ELEMENT_SET_NO": 999,
    "REV_AT_EPOCH": 27959,
    "BSTAR": 0.0028438,
    "MEAN_MOTION_DOT": 0.00107133,
    "MEAN_MOTION_DDOT": 0.0,
    "TLE_LINE1": "1 46696U 20073AC  25315.22060497  .00107133  00000+0  28438-2 0  9990",
    "TLE_LINE2": "2 46696  53.0553  30.5046 0003063  18.7327 341.3788 15.37458792279599",
    "COMMENT": "Grouped by shell and plane from TLE"
  },
  {
    "OBJECT_NAME": "STARLINK-30267",
    "OBJECT_ID": "23124A",
    "EPOCH": "2025-11-11T04:51:17.506080",
    "MEAN_MOTION": 15.30195927,
    "ECCENTRICITY": 0.0001135,
    "INCLINATION": 53.1619,
    "RA_OF_ASC_NODE": 37.3916,
    "ARG_OF_PERICENTER": 108.4426,
    "MEAN_ANOMALY": 251.6698,
    "EPHEMERIS_TYPE": 0,
    "CLASSIFICATION_TYPE": "U",
    "NORAD_CAT_ID": 57663,
    "ELEMENT_SET_NO": 999,
    "REV_AT_EPOCH": 12542,
    "BSTAR": 0.00023945,
    "MEAN_MOTION_DOT": 6.738e-05,
    "MEAN_MOTION_DDOT": 0.0,
    "TLE_LINE1": "1 57663U 23124A   25315.20228595  .00006738  00000+0  23945-3 0  9997",
    "TLE_LINE2": "2 57663  53.1619  37.3916 0001135 108.4426 251.6698 15.30195927125421",
    "COMMENT": "Grouped by shell and plane from TLE"
  },
  {
    "OBJECT_NAME": "STARLINK-30298",
    "OBJECT_ID": "23124C",
    "EPOCH": "2025-11-10T16:21:55.272672",
    "MEAN_MOTION": 15.30204894,
    "ECCENTRICITY": 0.0001111,
    "INCLINATION": 53.1609,
    "RA_OF_ASC_NODE": 39.8473,
    "ARG_OF_PERICENTER": 105.3948,
    "MEAN_ANOMALY": 254.7176,
    "EPHEMERIS_TYPE": 0,
    "CLASSIFICATION_TYPE": "U",
    "NORAD_CAT_ID": 57665,
    "ELEMENT_SET_NO": 999,
    "REV_AT_EPOCH": 12534,
    "BSTAR": 2.9870000000000004e-05,
    "MEAN_MOTION_DOT": 5.26e-06,
    "MEAN_MOTION_DDOT": 0.0,
    "TLE_LINE1": "1 57665U 23124C   25314.68188973  .00000526  00000+0  29870-4 0  9998",
    "TLE_LINE2": "2 57665  53.1609  39.8473 0001111 105.3948 254.7176 15.30204894125346",
    "COMMENT": "Grouped by shell and plane from TLE"
  },
  {
    "OBJECT_NAME": "STARLINK-30275",
    "OBJECT_ID": "23124E",
    "EPOCH": "2025-11-11T05:21:40.253184",
    "MEAN_MOTION": 15.30183243,
    "ECCENTRICITY": 0.0001122,
    "INCLINATION": 53.1627,
    "RA_OF_ASC_NODE": 37.3379,
    "ARG_OF_PERICENTER": 105.534,
    "MEAN_ANOMALY": 254.5785,
    "EPHEMERIS_TYPE": 0,
    "CLASSIFICATION_TYPE": "U",
    "NORAD_CAT_ID": 57667,
    "ELEMENT_SET_NO": 999,
    "REV_AT_EPOCH": 12542,
    "BSTAR": 0.00022495000000000002,
    "MEAN_MOTION_DOT": 6.306e-05,
    "MEAN_MOTION_DDOT": 0.0,
    "TLE_LINE1": "1 57667U 23124E   25315.22338256  .00006306  00000+0  22495-3 0  9999",
    "TLE_LINE2": "2 57667  53.1627  37.3379 0001122 105.5340 254.5785 15.30183243125423",
    "COMMENT": "Grouped by shell and plane from TLE"
  },
  {
    "OBJECT_NAME": "STARLINK-30278",
    "OBJECT_ID": "23124F",
    "EPOCH": "2025-11-11T05:14:07.071360",
    "MEAN_MOTION": 15.30156112,
    "ECCENTRICITY": 0.0001378,
    "INCLINATION": 53.1602,
    "RA_OF_ASC_NODE": 37.3315,
    "ARG_OF_PERICENTER": 80.8294,
    "MEAN_ANOMALY": 279.2862,
    "EPHEMERIS_TYPE": 0,
    "CLASSIFICATION_TYPE": "U",
    "NORAD_CAT_ID": 57668,
    "ELEMENT_SET_NO": 999,
    "REV_AT_EPOCH": 12542,
    "BSTAR": 0.0,
    "MEAN_MOTION_DOT": -4.06e-06,
    "MEAN_MOTION_DDOT": 0.0,
    "TLE_LINE1": "1 57668U 23124F   25315.21813740 -.00000406  00000+0 -15993-5 0  9999",
    "TLE_LINE2": "2 57668  53.1602  37.3315 0001378  80.8294 279.2862 15.30156112125428",
    "COMMENT": "Grouped by shell and plane from TLE"
  },
  {
    "OBJECT_NAME": "STARLINK-30271",
    "OBJECT_ID": "23124G",
    "EPOCH": "2025-11-11T05:33:47.109600",
    "MEAN_MOTION": 15.30190337,
    "ECCENTRICITY": 0.0001368,
    "INCLINATION": 53.1625,
    "RA_OF_ASC_NODE": 37.2784,
    "ARG_OF_PERICENTER": 97.0702,
    "MEAN_ANOMALY": 263.0454,
    "EPHEMERIS_TYPE": 0,
    "CLASSIFICATION_TYPE": "U",
    "NORAD_CAT_ID": 57669,
    "ELEMENT_SET_NO": 999,
    "REV_AT_EPOCH": 12542,
    "BSTAR": 0.00014052999999999998,
    "MEAN_MOTION_DOT": 3.804e-05,
    "MEAN_MOTION_DDOT": 0.0,
    "TLE_LINE1": "1 57669U 23124G   25315.23179525  .00003804  00000+0  14053-3 0  9995",
    "TLE_LINE2": "2 57669  53.1625  37.2784 0001368  97.0702 263.0454 15.30190337125421",
    "COMMENT": "Grouped by shell and plane from TLE"
  },
  {
    "OBJECT_NAME": "STARLINK-30322",
    "OBJECT_ID": "23124H",
    "EPOCH": "2025-11-11T05:20:08.890368",
    "MEAN_MOTION": 15.30202392,
    "ECCENTRICITY": 9.08e-05,
    "INCLINATION": 53.1614,
    "RA_OF_ASC_NODE": 37.3408,
    "ARG_OF_PERICENTER": 71.3735,
    "MEAN_ANOMALY": 288.7364,
    "EPHEMERIS_TYPE": 0,
    "CLASSIFICATION_TYPE": "U",
    "NORAD_CAT_ID": 57670,
    "ELEMENT_SET_NO": 999,
    "REV_AT_EPOCH": 12542,
    "BSTAR": 0.00032848,
    "MEAN_MOTION_DOT": 9.383e-05,
    "MEAN_MOTION_DDOT": 0.0,
    "TLE_LINE1": "1 57670U 23124H   25315.22232512  .00009383  00000+0  32848-3 0  9992",
    "TLE_LINE2": "2 57670  53.1614  37.3408 0000908  71.3735 288.7364 15.30202392125424",
    "COMMENT": "Grouped by shell and plane from TLE"
  },
  {
    "OBJECT_NAME": "STARLINK-30296",
    "OBJECT_ID": "23124J",
    "EPOCH": "2025-11-11T04:55:51.591072",
    "MEAN_MOTION": 15.30197559,
    "ECCENTRICITY": 7.38e-05,
    "INCLINATION": 53.1583,
    "RA_OF_ASC_NODE": 37.3667,
    "ARG_OF_PERICENTER": 82.0082,
    "MEAN_ANOMALY": 278.1003,
    "EPHEMERIS_TYPE": 0,
    "CLASSIFICATION_TYPE": "U",
    "NORAD_CAT_ID": 57671,
    "ELEMENT_SET_NO": 999,
    "REV_AT_EPOCH": 12542,
    "BSTAR": 0.00013507,
    "MEAN_MOTION_DOT": 3.643e-05,
    "MEAN_MOTION_DDOT": 0.0,
    "TLE_LINE1": "1 57671U 23124J   25315.20545823  .00003643  00000+0  13507-3 0  9997",
    "TLE_LINE2": "2 57671  53.1583  37.3667 0000738  82.0082 278.1003 15.30197559125423",
    "COMMENT": "Grouped by shell and plane from TLE"
  },
  {
    "OBJECT_NAME": "STARLINK-30274",
    "OBJECT_ID": "23124K",
    "EPOCH": "2025-11-11T06:07:08.037696",
    "MEAN_MOTION": 15.30196398,
    "ECCENTRICITY": 9.71e-05,
    "INCLINATION": 53.1606,
    "RA_OF_ASC_NODE": 37.0678,
    "ARG_OF_PERICENTER": 88.8108,
    "MEAN_ANOMALY": 271.3004,
    "EPHEMERIS_TYPE": 0,
    "CLASSIFICATION_TYPE": "U",
    "NORAD_CAT_ID": 57672,
    "ELEMENT_SET_NO": 999,
    "REV_AT_EPOCH": 12543,
    "BSTAR": 9.120200000000001e-05,
    "MEAN_MOTION_DOT": 2.343e-05,
    "MEAN_MOTION_DDOT": 0.0,
    "TLE_LINE1": "1 57672U 23124K   25315.25495414  .00002343  00000+0  91202-4 0  9998",
    "TLE_LINE2": "2 57672  53.1606  37.0678 0000971  88.8108 271.3004 15.30196398125438",
    "COMMENT": "Grouped by shell and plane from TLE"
  },
  {
    "OBJECT_NAME": "STARLINK-30313",
    "OBJECT_ID": "23124P",
    "EPOCH": "2025-11-11T06:11:41.665632",
    "MEAN_MOTION": 15.30193808,
    "ECCENTRICITY": 7.55e-05,
    "INCLINATION": 53.1606,
    "RA_OF_ASC_NODE": 37.0903,
    "ARG_OF_PERICENTER": 74.283,
    "MEAN_ANOMALY": 285.8254,
    "EPHEMERIS_TYPE": 0,
    "CLASSIFICATION_TYPE": "U",
    "NORAD_CAT_ID": 57676,
    "ELEMENT_SET_NO": 999,
    "REV_AT_EPOCH": 12543,
    "BSTAR": 0.00011855000000000001,
    "MEAN_MOTION_DOT": 3.153e-05,
    "MEAN_MOTION_DDOT": 0.0,
    "TLE_LINE1": "1 57676U 23124P   25315.25812113  .00003153  00000+0  11855-3 0  9996",
    "TLE_LINE2": "2 57676  53.1606  37.0903 0000755  74.2830 285.8254 15.30193808125434",
    "COMMENT": "Grouped by shell and plane from TLE"
  }
]